ONEWEB-0538             
1 56047U 23043B   23359.14050471  .00000412  00000+0  10425-2 0  9998
2 56047  87.9062  48.9212 0002116 108.8414 251.2947 13.16615790 40797
ONEWEB-0546             
1 56048U 23043C   23359.12779725  .00000147  00000+0  35109-3 0  9999
2 56048  87.9057  48.8840 0002279  75.4168 284.7215 13.16592952 40785
ONEWEB-0547             
1 56049U 23043D   23358.69249678 -.00000173  00000+0 -45001-3 0  9993
2 56049  87.9242  64.2366 0002461 103.7839 256.3569 13.21825807 38609
ONEWEB-0548             
1 56050U 23043E   23358.69714476 -.00001603  00000+0 -42264-2 0  9994
2 56050  87.9064  49.0160 0001288 103.1098 257.0177 13.16598648 39814
ONEWEB-0549             
1 56051U 23043F   23358.68460549  .00000088  00000+0  18261-3 0  9998
2 56051  87.9243  64.2376 0001844 107.9083 252.2252 13.21826149 38609
ONEWEB-0550             
1 56052U 23043G   23358.74768323 -.00000093  00000+0 -25581-3 0  9998
2 56052  87.9240  64.2399 0001625 105.2180 254.9133 13.21822951 38613
ONEWEB-0551             
1 56053U 23043H   23359.14907521 -.00000621  00000+0 -16848-2 0  9991
2 56053  87.9005  79.3962 0001780 117.1673 242.9639 13.15552023 38315
ONEWEB-0552             
1 56054U 23043J   23358.74137586  .00000775  00000+0  18456-2 0  9998
2 56054  87.9239  64.2516 0001438 114.8185 245.3099 13.21818167 38616
